STARLINK-2746
1 18676C 21044AQ  21326.17585213  .00002910  00000-0  19493-3 0  3263
2 18676  53.0551 312.9402 0001672  62.8327 351.1594 15.06399606    11
